{
  "norad_id": 65559,
  "name": "GEESAT-5 10",
  "history": [
    {
      "epoch": "2026-03-28T22:46:37.171776Z",
      "apogee_km": 622.758314632817,
      "perigee_km": 611.5136930900308,
      "latitude_deg": -9.42968349675709e-06,
      "longitude_deg": -117.01684404907884,
      "height_km": 612.5826817842404,
      "semi_major_axis_km": 6995.273003861424,
      "eccentricity": 0.00080373,
      "inclination_deg": 49.9823,
      "raan_deg": 51.0002,
      "arg_perigee_deg": 335.0807,
      "mean_anomaly_deg": 24.9742,
      "mean_motion_rev_day": 14.83869675
    },
    {
      "epoch": "2026-03-29T03:37:32.448864Z",
      "apogee_km": 622.7416062123821,
      "perigee_km": 611.5128081070488,
      "latitude_deg": -4.246867682003368e-06,
      "longitude_deg": 169.11691059206876,
      "height_km": 612.5519904194346,
      "semi_major_axis_km": 6995.264207159715,
      "eccentricity": 0.0008026,
      "inclination_deg": 49.9823,
      "raan_deg": 50.0634,
      "arg_perigee_deg": 335.7928,
      "mean_anomaly_deg": 24.2632,
      "mean_motion_rev_day": 14.83872474
    },
    {
      "epoch": "2026-03-30T03:52:08.690880Z",
      "apogee_km": 622.71082042735,
      "perigee_km": 611.5058364602482,
      "latitude_deg": 2.0102800918989125e-05,
      "longitude_deg": 159.78588206081824,
      "height_km": 612.3988722569067,
      "semi_major_axis_km": 6995.245328443799,
      "eccentricity": 0.0008009,
      "inclination_deg": 49.9822,
      "raan_deg": 45.379,
      "arg_perigee_deg": 339.702,
      "mean_anomaly_deg": 20.3599,
      "mean_motion_rev_day": 14.83878481
    },
    {
      "epoch": "2026-03-30T05:29:07.091520Z",
      "apogee_km": 622.7079618421558,
      "perigee_km": 611.5052191368586,
      "latitude_deg": 7.067281563380268e-05,
      "longitude_deg": 135.16381247247068,
      "height_km": 612.3885523030361,
      "semi_major_axis_km": 6995.2435904895065,
      "eccentricity": 0.00080074,
      "inclination_deg": 49.9822,
      "raan_deg": 45.0666,
      "arg_perigee_deg": 339.987,
      "mean_anomaly_deg": 20.0754,
      "mean_motion_rev_day": 14.83879034
    },
    {
      "epoch": "2026-03-30T13:33:59.044608Z",
      "apogee_km": 622.6977668246318,
      "perigee_km": 611.4969975318882,
      "latitude_deg": -1.0368659984109319e-07,
      "longitude_deg": 12.054003653344443,
      "height_km": 612.3354577591427,
      "semi_major_axis_km": 6995.23438217826,
      "eccentricity": 0.0008006,
      "inclination_deg": 49.9823,
      "raan_deg": 43.5052,
      "arg_perigee_deg": 341.3689,
      "mean_anomaly_deg": 18.6955,
      "mean_motion_rev_day": 14.83881964
    },
    {
      "epoch": "2026-03-30T21:38:50.956224Z",
      "apogee_km": 622.6853754920458,
      "perigee_km": 611.4931533734789,
      "latitude_deg": 4.0747580920262735e-05,
      "longitude_deg": -111.05573867655676,
      "height_km": 612.2930606713187,
      "semi_major_axis_km": 6995.226264432762,
      "eccentricity": 0.00079999,
      "inclination_deg": 49.9824,
      "raan_deg": 41.9436,
      "arg_perigee_deg": 342.6348,
      "mean_anomaly_deg": 17.4316,
      "mean_motion_rev_day": 14.83884547
    },
    {
      "epoch": "2026-03-31T20:16:28.073568Z",
      "apogee_km": 622.6513549721503,
      "perigee_km": 611.4856079826168,
      "latitude_deg": -3.5079020947176407e-06,
      "longitude_deg": -95.7618868605196,
      "height_km": 612.1909859147644,
      "semi_major_axis_km": 6995.205481477384,
      "eccentricity": 0.0007981,
      "inclination_deg": 49.9826,
      "raan_deg": 37.5714,
      "arg_perigee_deg": 346.2105,
      "mean_anomaly_deg": 13.8614,
      "mean_motion_rev_day": 14.8389116
    },
    {
      "epoch": "2026-04-01T20:31:03.175968Z",
      "apogee_km": 622.6221581011332,
      "perigee_km": 611.4802223517408,
      "latitude_deg": -4.729258067241475e-05,
      "longitude_deg": -105.088010232063,
      "height_km": 612.1066614068933,
      "semi_major_axis_km": 6995.188190226437,
      "eccentricity": 0.0007964,
      "inclination_deg": 49.9831,
      "raan_deg": 32.8872,
      "arg_perigee_deg": 350.1333,
      "mean_anomaly_deg": 9.9447,
      "mean_motion_rev_day": 14.83896662
    },
    {
      "epoch": "2026-04-02T20:45:37.824768Z",
      "apogee_km": 622.5732755756044,
      "perigee_km": 611.462171812489,
      "latitude_deg": -1.3930862243743204e-05,
      "longitude_deg": -114.41237449799516,
      "height_km": 612.0352515935325,
      "semi_major_axis_km": 6995.154723694046,
      "eccentricity": 0.0007942,
      "inclination_deg": 49.9832,
      "raan_deg": 28.2028,
      "arg_perigee_deg": 354.0858,
      "mean_anomaly_deg": 5.9985,
      "mean_motion_rev_day": 14.83907311
    },
    {
      "epoch": "2026-04-02T22:22:36.122592Z",
      "apogee_km": 622.5714816552454,
      "perigee_km": 611.4623378281058,
      "latitude_deg": -2.3075193354170435e-05,
      "longitude_deg": -139.03396440929745,
      "height_km": 612.0322278320796,
      "semi_major_axis_km": 6995.153909741675,
      "eccentricity": 0.00079406,
      "inclination_deg": 49.9832,
      "raan_deg": 27.8905,
      "arg_perigee_deg": 354.4089,
      "mean_anomaly_deg": 5.6759,
      "mean_motion_rev_day": 14.8390757
    },
    {
      "epoch": "2026-04-03T19:23:13.721280Z",
      "apogee_km": 622.5384941328584,
      "perigee_km": 611.4470163929145,
      "latitude_deg": 4.394117650155223e-05,
      "longitude_deg": -99.1131379396041,
      "height_km": 611.9937402635567,
      "semi_major_axis_km": 6995.129755262887,
      "eccentricity": 0.0007928,
      "inclination_deg": 49.9833,
      "raan_deg": 23.8308,
      "arg_perigee_deg": 357.8874,
      "mean_anomaly_deg": 2.203,
      "mean_motion_rev_day": 14.83915256
    }
  ]
}